{
  "norad_id": 62895,
  "name": "STARLINK-32901",
  "history": [
    {
      "epoch": "2026-05-06T08:05:44.133504Z",
      "apogee_km": 483.4087912005534,
      "perigee_km": 482.55705177350046,
      "latitude_deg": 1.4948341089309162e-06,
      "longitude_deg": 14.058416546395591,
      "height_km": 482.48563526194147,
      "semi_major_axis_km": 6861.119921487027,
      "eccentricity": 6.207e-05,
      "inclination_deg": 42.9998,
      "raan_deg": 359.6917,
      "arg_perigee_deg": 309.9008,
      "mean_anomaly_deg": 50.1789,
      "mean_motion_rev_day": 15.276021
    },
    {
      "epoch": "2026-05-07T15:28:53.112288Z",
      "apogee_km": 483.9298109638876,
      "perigee_km": 482.2995775613299,
      "latitude_deg": -3.0775808744620165e-05,
      "longitude_deg": -105.40370435605521,
      "height_km": 482.7930095804535,
      "semi_major_axis_km": 6861.251694262608,
      "eccentricity": 0.0001188,
      "inclination_deg": 43.0013,
      "raan_deg": 352.306,
      "arg_perigee_deg": 276.9311,
      "mean_anomaly_deg": 83.1405,
      "mean_motion_rev_day": 15.27558093
    },
    {
      "epoch": "2026-05-08T15:01:13.921248Z",
      "apogee_km": 483.89282307238045,
      "perigee_km": 482.1596932333714,
      "latitude_deg": -2.1760246896325208e-05,
      "longitude_deg": -104.99611877819903,
      "height_km": 482.8693063321067,
      "semi_major_axis_km": 6861.163258152876,
      "eccentricity": 0.0001263,
      "inclination_deg": 43.0006,
      "raan_deg": 346.767,
      "arg_perigee_deg": 265.6051,
      "mean_anomaly_deg": 94.4656,
      "mean_motion_rev_day": 15.27587627
    },
    {
      "epoch": "2026-05-09T20:50:12.102432Z",
      "apogee_km": 483.87836427257844,
      "perigee_km": 482.23442233554215,
      "latitude_deg": 1.8582040038985405e-05,
      "longitude_deg": 159.52089364082772,
      "height_km": 483.0982878077461,
      "semi_major_axis_km": 6861.19339330406,
      "eccentricity": 0.0001198,
      "inclination_deg": 43.0007,
      "raan_deg": 339.7509,
      "arg_perigee_deg": 251.1642,
      "mean_anomaly_deg": 108.908,
      "mean_motion_rev_day": 15.27577563
    },
    {
      "epoch": "2026-05-10T06:15:08.578080Z",
      "apogee_km": 484.2025417687046,
      "perigee_km": 481.89402736785814,
      "latitude_deg": 1.5418764546569744e-05,
      "longitude_deg": 15.68288599200727,
      "height_km": 482.9877668660218,
      "semi_major_axis_km": 6861.185284568281,
      "eccentricity": 0.00016823,
      "inclination_deg": 43.0003,
      "raan_deg": 337.5349,
      "arg_perigee_deg": 261.904,
      "mean_anomaly_deg": 98.1621,
      "mean_motion_rev_day": 15.27580271
    },
    {
      "epoch": "2026-05-11T19:54:53.855136Z",
      "apogee_km": 483.66580253844495,
      "perigee_km": 482.3512070597253,
      "latitude_deg": -3.9827841841249485e-05,
      "longitude_deg": 160.33522475793131,
      "height_km": 482.9302092659351,
      "semi_major_axis_km": 6861.145504799085,
      "eccentricity": 9.58e-05,
      "inclination_deg": 43.0008,
      "raan_deg": 328.6727,
      "arg_perigee_deg": 257.2261,
      "mean_anomaly_deg": 102.8483,
      "mean_motion_rev_day": 15.27593556
    },
    {
      "epoch": "2026-05-12T21:01:24.012768Z",
      "apogee_km": 484.04431265713174,
      "perigee_km": 482.02712787737346,
      "latitude_deg": -1.9308550418605607e-05,
      "longitude_deg": 136.77192586232883,
      "height_km": 482.77418166484927,
      "semi_major_axis_km": 6861.172720267253,
      "eccentricity": 0.000147,
      "inclination_deg": 43.0012,
      "raan_deg": 322.7662,
      "arg_perigee_deg": 272.1841,
      "mean_anomaly_deg": 87.8842,
      "mean_motion_rev_day": 15.27584467
    },
    {
      "epoch": "2026-05-13T14:17:07.286208Z",
      "apogee_km": 483.93738511185165,
      "perigee_km": 482.12603657218915,
      "latitude_deg": 3.917802049603088e-05,
      "longitude_deg": -126.93124329783717,
      "height_km": 482.84068858853453,
      "semi_major_axis_km": 6861.16871084202,
      "eccentricity": 0.000132,
      "inclination_deg": 42.9993,
      "raan_deg": 318.7022,
      "arg_perigee_deg": 267.9479,
      "mean_anomaly_deg": 92.1222,
      "mean_motion_rev_day": 15.27585806
    }
  ]
}